EUTELSAT 7A             
1 28187U 04008A   25298.24563510  .00000117  00000+0  00000+0 0  9997
2 28187   5.2305  74.8006 0000770 117.8968 150.4283  1.00270998 78994
EUTELSAT 174A           
1 28924U 05052A   25298.22425748  .00000023  00000+0  00000+0 0  9990
2 28924   3.6205  79.4249 0006120 133.2402  76.0046  1.00269813 49974
EUTELSAT HOTBIRD 13B    
1 29270U 06032A   25298.26767770  .00000169  00000+0  00000+0 0  9993
2 29270   1.0501  84.7838 0003931 121.8240 316.7856  1.00274162 44952
EUTELSAT HOTBIRD 13C    
1 33459U 08065A   25298.25866432 -.00000087  00000+0  00000+0 0  9999
2 33459   2.3423  81.9561 0005912 150.9767 241.6230  1.00272294 44993
EUTELSAT 36B            
1 36101U 09065A   25298.19973071  .00000125  00000+0  00000+0 0  9990
2 36101   0.0507   3.1867 0005913 211.7785 301.3100  1.00270099 58356
EUTELSAT KA-SAT 9A      
1 37258U 10069A   25297.62069503  .00000075  00000+0  00000+0 0  9997
2 37258   0.0574 321.5705 0002514 216.0831  88.0974  1.00274610 41641
EUTELSAT 7 WEST A       
1 37816U 11051A   25298.25970432 -.00000047  00000+0  00000+0 0  9991
2 37816   0.0944  47.4397 0006287 159.5554 273.1268  1.00272568 51539
EUTELSAT 16A            
1 37836U 11057A   25298.26429767  .00000116  00000+0  00000+0 0  9996
2 37836   0.0654 359.9005 0005502 214.7101 290.4714  1.00270461  4971
